STARLINK-30524          
1 57965U 23151B   26068.16426896  .00007138  00000+0  27520-3 0  9995
2 57965  43.0000 339.1883 0001045 274.6135  85.4596 15.26777620135687
TANSTAAFL-2             
1 62378U 24247B   26067.20753490  .00013897  00000+0  50872-3 0  9998
2 62378  44.9880 125.0934 0003072 298.8909  61.1666 15.28016845 67506
